STARLINK-1090_new
1 14968C 20001BG  21326.16773536 -.00003934  00000-0 -26370-3 0  3262
2 14968  53.0523 147.9887 0001677  82.7723 174.7393 15.06388043    18
STARLINK-1090_old
1 24968C 20001BG  21325.12886417  .00002775  00000-0  18587-3 0  3250
2 24968  53.0516 152.6527 0001756  82.6205 297.9075 15.06401958    12
